$$SOE
2460154.500000000, A.D. 2023-Jul-29 00:00:00.0000, -4.069715189211727E+08, -2.707500670637596E+08, 1.177753442842782E+06,
2460161.500000000, A.D. 2023-Aug-05 00:00:00.0000, -4.016329583063197E+08, -2.779246744744616E+08, 2.037732156470716E+05,
2460168.500000000, A.D. 2023-Aug-12 00:00:00.0000, -3.961271192081181E+08, -2.849834984795568E+08, -7.702897893330902E+05,
2460175.500000000, A.D. 2023-Aug-19 00:00:00.0000, -3.904558628393661E+08, -2.919232870709704E+08, -1.744028732134506E+06,
2460182.500000000, A.D. 2023-Aug-26 00:00:00.0000, -3.846210918877692E+08, -2.987407933855301E+08, -2.717034615921006E+06,
2460189.500000000, A.D. 2023-Sep-02 00:00:00.0000, -3.786247517090746E+08, -3.054327750959607E+08, -3.688896159863502E+06,
2460196.500000000, A.D. 2023-Sep-09 00:00:00.0000, -3.724688315710348E+08, -3.119959939549137E+08, -4.659199683018908E+06,
2460203.500000000, A.D. 2023-Sep-16 00:00:00.0000, -3.661553657805961E+08, -3.184272155518008E+08, -5.627529019438744E+06,
2460210.500000000, A.D. 2023-Sep-23 00:00:00.0000, -3.596864342787403E+08, -3.247232089974940E+08, -6.593465479298234E+06,
2460217.500000000, A.D. 2023-Sep-30 00:00:00.0000, -3.530641630432395E+08, -3.308807453479714E+08, -7.556587727597207E+06,
2460224.500000000, A.D. 2023-Oct-07 00:00:00.0000, -3.462907266533185E+08, -3.368965953117077E+08, -8.516471408919320E+06,
2460231.500000000, A.D. 2023-Oct-14 00:00:00.0000, -3.393683519769890E+08, -3.427675295570804E+08, -9.472688884471744E+06,
2460238.500000000, A.D. 2023-Oct-21 00:00:00.0000, -3.322993197543412E+08, -3.484903200207171E+08, -1.042480924660620E+07,
2460245.500000000, A.D. 2023-Oct-28 00:00:00.0000, -3.250859655029612E+08, -3.540617399593570E+08, -1.137239829536556E+07,
2460252.500000000, A.D. 2023-Nov-04 00:00:00.0000, -3.177306809963813E+08, -3.594785635178741E+08, -1.231501842522241E+07,
2460259.500000000, A.D. 2023-Nov-11 00:00:00.0000, -3.102359161384089E+08, -3.647375654161741E+08, -1.325222848726340E+07,
2460266.500000000, A.D. 2023-Nov-18 00:00:00.0000, -3.026041810143926E+08, -3.698355208230235E+08, -1.418358365224747E+07,
2460273.500000000, A.D. 2023-Nov-25 00:00:00.0000, -2.948380480476563E+08, -3.747692053986210E+08, -1.510863527948475E+07,
2460280.500000000, A.D. 2023-Dec-02 00:00:00.0000, -2.869401542342802E+08, -3.795353955216452E+08, -1.602693079518285E+07,
2460287.500000000, A.D. 2023-Dec-09 00:00:00.0000, -2.789132033797240E+08, -3.841308687642803E+08, -1.693801359242481E+07,
2460294.500000000, A.D. 2023-Dec-16 00:00:00.0000, -2.707599680509056E+08, -3.885524046074454E+08, -1.784142297843862E+07,
2460301.500000000, A.D. 2023-Dec-23 00:00:00.0000, -2.624832908963012E+08, -3.927967847138203E+08, -1.873669414536291E+07,
2460308.500000000, A.D. 2023-Dec-30 00:00:00.0000, -2.540860866749611E+08, -3.968607917144796E+08, -1.962335795635423E+07,
2460315.500000000, A.D. 2024-Jan-06 00:00:00.0000, -2.455713467669677E+08, -4.007412088754265E+08, -2.050094057806897E+07,
2460322.500000000, A.D. 2024-Jan-13 00:00:00.0000, -2.369421429930852E+08, -4.044348224581478E+08, -2.136896339910460E+07,
2460329.500000000, A.D. 2024-Jan-20 00:00:00.0000, -2.282016295216739E+08, -4.079384236974251E+08, -2.222694309547484E+07,
2460336.500000000, A.D. 2024-Jan-27 00:00:00.0000, -2.193530448931806E+08, -4.112488097509027E+08, -2.307439160454533E+07,
2460343.500000000, A.D. 2024-Feb-03 00:00:00.0000, -2.103997145912618E+08, -4.143627845747988E+08, -2.391081604636863E+07,
2460350.500000000, A.D. 2024-Feb-10 00:00:00.0000, -2.013450538826112E+08, -4.172771600223900E+08, -2.473571864231834E+07,
2460357.500000000, A.D. 2024-Feb-17 00:00:00.0000, -1.921925707848108E+08, -4.199887571636133E+08, -2.554859664380300E+07,
2460364.500000000, A.D. 2024-Feb-24 00:00:00.0000, -1.829458691234726E+08, -4.224944078191530E+08, -2.634894227403316E+07,
2460371.500000000, A.D. 2024-Mar-02 00:00:00.0000, -1.736086516467462E+08, -4.247909563518485E+08, -2.713624268929189E+07,
2460378.500000000, A.D. 2024-Mar-09 00:00:00.0000, -1.641847230566521E+08, -4.268752617900469E+08, -2.790997997885764E+07,
2460385.500000000, A.D. 2024-Mar-16 00:00:00.0000, -1.546779925608940E+08, -4.287442000977734E+08, -2.866963122504693E+07,
2460392.500000000, A.D. 2024-Mar-23 00:00:00.0000, -1.450924760476436E+08, -4.303946654942672E+08, -2.941466852450943E+07,
2460399.500000000, A.D. 2024-Mar-30 00:00:00.0000, -1.354323001222232E+08, -4.318235708602710E+08, -3.014455876857051E+07,
2460406.500000000, A.D. 2024-Apr-06 00:00:00.0000, -1.257017077455922E+08, -4.330278506094615E+08, -3.085876348256072E+07,
2460413.500000000, A.D. 2024-Apr-13 00:00:00.0000, -1.159050619186077E+08, -4.340044652013907E+08, -3.155673898296002E+07,
2460420.500000000, A.D. 2024-Apr-20 00:00:00.0000, -1.060468483592141E+08, -4.347504046329918E+08, -3.223793654778901E+07,
2460427.500000000, A.D. 2024-Apr-27 00:00:00.0000, -9.613167868371288E+07, -4.352626914835055E+08, -3.290180250848532E+07,
2460434.500000000, A.D. 2024-May-04 00:00:00.0000, -8.616429399713920E+07, -4.355383842297768E+08, -3.354777833038917E+07,
2460441.500000000, A.D. 2024-May-11 00:00:00.0000, -7.614956864611572E+07, -4.355745809475963E+08, -3.417530071369898E+07,
2460448.500000000, A.D. 2024-May-18 00:00:00.0000, -6.609251404248420E+07, -4.353684233919147E+08, -3.478380172247174E+07,
2460455.500000000, A.D. 2024-May-25 00:00:00.0000, -5.599828252196482E+07, -4.349171014784938E+08, -3.537270894651026E+07,
2460462.500000000, A.D. 2024-Jun-01 00:00:00.0000, -4.587217116600951E+07, -4.342178582407991E+08, -3.594144570842054E+07,
2460469.500000000, A.D. 2024-Jun-08 00:00:00.0000, -3.571962532753926E+07, -4.332679953017756E+08, -3.648943134243271E+07,
2460476.500000000, A.D. 2024-Jun-15 00:00:00.0000, -2.554624144667227E+07, -4.320648783318940E+08, -3.701608153917840E+07,
2460483.500000000, A.D. 2024-Jun-22 00:00:00.0000, -1.535777014537213E+07, -4.306059413341557E+08, -3.752080857024795E+07,
2460490.500000000, A.D. 2024-Jun-29 00:00:00.0000, -5.160121703588832E+06, -4.288886915916784E+08, -3.800302134880909E+07,
2460497.500000000, A.D. 2024-Jul-06 00:00:00.0000, 5.040628750627906E+06, -4.269107177644783E+08, -3.846212577324423E+07,
2460504.500000000, A.D. 2024-Jul-13 00:00:00.0000, 1.523823831118259E+07, -4.246696983293024E+08, -3.889752530468866E+07,
2460511.500000000, A.D. 2024-Jul-20 00:00:00.0000, 2.542629366491903E+07, -4.221634092324781E+08, -3.930862150563464E+07,
2460518.500000000, A.D. 2024-Jul-27 00:00:00.0000, 3.559820813604049E+07, -4.193897317332333E+08, -3.969481456125835E+07,
2460525.500000000, A.D. 2024-Aug-03 00:00:00.0000, 4.574721870773698E+07, -4.163466608296373E+08, -4.005550384278911E+07,
2460532.500000000, A.D. 2024-Aug-10 00:00:00.0000, 5.586638322015090E+07, -4.130323142874846E+08, -4.039008853227931E+07,
2460539.500000000, A.D. 2024-Aug-17 00:00:00.0000, 6.594857782852766E+07, -4.094449422644144E+08, -4.069796831521049E+07,
2460546.500000000, A.D. 2024-Aug-24 00:00:00.0000, 7.598649478978728E+07, -4.055829375639943E+08, -4.097854414931431E+07,
2460553.500000000, A.D. 2024-Aug-31 00:00:00.0000, 8.597264073741160E+07, -4.014448465928687E+08, -4.123121912940651E+07,
2460560.500000000, A.D. 2024-Sep-07 00:00:00.0000, 9.589933585773049E+07, -3.970293809052022E+08, -4.145539947567302E+07,
2460567.500000000, A.D. 2024-Sep-14 00:00:00.0000, 1.057587141035105E+08, -3.923354283470656E+08, -4.165049557604167E+07,
2460574.500000000, A.D. 2024-Sep-21 00:00:00.0000, 1.155427224698548E+08, -3.873620633931167E+08, -4.181592286687392E+07,
2460581.500000000, A.D. 2024-Sep-28 00:00:00.0000, 1.252431189027146E+08, -3.821085599033791E+08, -4.195110277489860E+07,
2460588.500000000, A.D. 2024-Oct-05 00:00:00.0000, 1.348514725721990E+08, -3.765744062955449E+08, -4.205546406072636E+07,
2460595.500000000, A.D. 2024-Oct-12 00:00:00.0000, 1.443591662155857E+08, -3.707593201473460E+08, -4.212844429105346E+07,
2460602.500000000, A.D. 2024-Oct-19 00:00:00.0000, 1.537573988664849E+08, -3.646632624883903E+08, -4.216949130414380E+07,
2460609.500000000, A.D. 2024-Oct-26 00:00:00.0000, 1.630371890082564E+08, -3.582864525630431E+08, -4.217806473340219E+07,
2460616.500000000, A.D. 2024-Nov-02 00:00:00.0000, 1.721893784843032E+08, -3.516293831848704E+08, -4.215363762659284E+07,
2460623.500000000, A.D. 2024-Nov-09 00:00:00.0000, 1.812046373424481E+08, -3.446928366275784E+08, -4.209569816966572E+07,
2460630.500000000, A.D. 2024-Nov-16 00:00:00.0000, 1.900734697238447E+08, -3.374779010123665E+08, -4.200375151943900E+07,
2460637.500000000, A.D. 2024-Nov-23 00:00:00.0000, 1.987862209297771E+08, -3.299859871953851E+08, -4.187732175516814E+07,
2460644.500000000, A.D. 2024-Nov-30 00:00:00.0000, 2.073330859618185E+08, -3.222188461437451E+08, -4.171595397250658E+07,
2460651.500000000, A.D. 2024-Dec-07 00:00:00.0000, 2.157041200416903E+08, -3.141785863161549E+08, -4.151921652376483E+07,
2460658.500000000, A.D. 2024-Dec-14 00:00:00.0000, 2.238892505071855E+08, -3.058676897498746E+08, -4.128670323971802E+07,
2460665.500000000, A.D. 2024-Dec-21 00:00:00.0000, 2.318782878473593E+08, -2.972890280061058E+08, -4.101803551853251E+07,
2460672.500000000, A.D. 2024-Dec-28 00:00:00.0000, 2.396609379287501E+08, -2.884458808365390E+08, -4.071286470054121E+07,
2460679.500000000, A.D. 2025-Jan-04 00:00:00.0000, 2.472268180877897E+08, -2.793419550777711E+08, -4.037087476706792E+07,
2460686.500000000, A.D. 2025-Jan-11 00:00:00.0000, 2.545654753416958E+08, -2.699814019859166E+08, -3.999178505351152E+07,
2460693.500000000, A.D. 2025-Jan-18 00:00:00.0000, 2.616664058665507E+08, -2.603688337892346E+08, -3.957535295887096E+07,
2460700.500000000, A.D. 2025-Jan-25 00:00:00.0000, 2.685190760421953E+08, -2.505093397781940E+08, -3.912137670217609E+07,
2460707.500000000, A.D. 2025-Feb-01 00:00:00.0000, 2.751129452984459E+08, -2.404085017943403E+08, -3.862969813310431E+07,
2460714.500000000, A.D. 2025-Feb-08 00:00:00.0000, 2.814374908525575E+08, -2.300724089165604E+08, -3.810020558598422E+07,
$$EOE